COSMOS 2151             
1 21422U 91042A   25331.27664433  .00002324  00000+0  18643-3 0  9991
2 21422  82.4969 182.4032 0013779  49.2407 311.0010 14.99604183847846
SL-14 R/B               
1 21423U 91042B   25330.97986145  .00000550  00000+0  66720-4 0  9994
2 21423  82.4915 316.5036 0016086 214.2974 145.7203 14.81716856837868
ERS-1                   
1 21574U 91050A   25331.02642090  .00000367  00000+0  13222-3 0  9999
2 21574  98.7915 341.6880 0032596 145.3830 214.9488 14.39346486800966
ARIANE 40 R/B           
1 21610U 91050F   25331.11339229  .00000421  00000+0  13886-3 0  9994
2 21610  98.2187  22.1065 0003712  43.6048 316.5436 14.42793548804200
INTERCOSMOS 25          
1 21819U 91086A   25331.19638611  .00001357  00000+0  26731-3 0  9991
2 21819  82.6067  11.9750 1487436 337.9129  16.3752 12.11646139484275
SL-8 R/B                
1 21876U 92008B   25330.54751196  .00000152  00000+0  13973-3 0  9997
2 21876  82.9267 344.4919 0035952  63.9064  54.2112 13.75953796695231
SL-8 R/B                
1 21938U 92020B   25331.28627833  .00000070  00000+0  56563-4 0  9994
2 21938  82.9316 229.7914 0027962 222.0516 257.2570 13.75523974687052
USA 81                  
1 21949U 92023A   25331.03610932  .00000211  00000+0  70840-4 0  9995
2 21949  85.0094 190.6318 0002136  65.6436 294.4980 14.32318638 80095
COSMOS 2219             
1 22219U 92076A   25331.16196699 -.00000217  00000+0 -89294-4 0  9998
2 22219  71.0605 232.3952 0018590 348.6707  11.3995 14.14066116703885
SL-16 R/B               
1 22220U 92076B   25331.32674611  .00000291  00000+0  16916-3 0  9993
2 22220  71.0015  43.9986 0015079 254.0980 169.6109 14.16838405707335
COSMOS 2221             
1 22236U 92080A   25331.23027308  .00002104  00000+0  18653-3 0  9995
2 22236  82.5055  17.1689 0014848 171.0296 189.1194 14.95673244765472
SL-16 R/B               
1 22285U 92093B   25331.12575137 -.00000219  00000+0 -87623-4 0  9990
2 22285  71.0212 219.5714 0002002 119.1319 241.0004 14.15427223698647
