CCSDS_OMM_VERS = 2.0
CREATION_DATE  = 
ORIGINATOR     = 

OBJECT_NAME    = COSMOS 2151
OBJECT_ID      = 1991-042A
CENTER_NAME    = EARTH
REF_FRAME      = TEME
TIME_SYSTEM    = UTC
MEAN_ELEMENT_THEORY = SGP/SGP4

EPOCH          = 2025-11-27T06:38:22.070112
MEAN_MOTION    = 14.99604183
ECCENTRICITY   = .00137796
INCLINATION    = 82.4969
RA_OF_ASC_NODE = 182.4032
ARG_OF_PERICENTER = 49.2407
MEAN_ANOMALY   = 311.0010

EPHEMERIS_TYPE = 0
CLASSIFICATION_TYPE = U
NORAD_CAT_ID   = 21422
ELEMENT_SET_NO = 999
REV_AT_EPOCH   = 84784
BSTAR          = .18643338E-3
MEAN_MOTION_DOT = .2324E-4
MEAN_MOTION_DDOT = 0

CCSDS_OMM_VERS = 2.0
CREATION_DATE  = 
ORIGINATOR     = 

OBJECT_NAME    = SL-14 R/B
OBJECT_ID      = 1991-042B
CENTER_NAME    = EARTH
REF_FRAME      = TEME
TIME_SYSTEM    = UTC
MEAN_ELEMENT_THEORY = SGP/SGP4

EPOCH          = 2025-11-26T23:31:00.029280
MEAN_MOTION    = 14.81716856
ECCENTRICITY   = .00160861
INCLINATION    = 82.4915
RA_OF_ASC_NODE = 316.5036
ARG_OF_PERICENTER = 214.2974
MEAN_ANOMALY   = 145.7203

EPHEMERIS_TYPE = 0
CLASSIFICATION_TYPE = U
NORAD_CAT_ID   = 21423
ELEMENT_SET_NO = 999
REV_AT_EPOCH   = 83786
BSTAR          = .66719884E-4
MEAN_MOTION_DOT = .55E-5
MEAN_MOTION_DDOT = 0

CCSDS_OMM_VERS = 2.0
CREATION_DATE  = 
ORIGINATOR     = 

OBJECT_NAME    = ERS-1
OBJECT_ID      = 1991-050A
CENTER_NAME    = EARTH
REF_FRAME      = TEME
TIME_SYSTEM    = UTC
MEAN_ELEMENT_THEORY = SGP/SGP4

EPOCH          = 2025-11-27T00:38:02.765760
MEAN_MOTION    = 14.39346486
ECCENTRICITY   = .00325964
INCLINATION    = 98.7915
RA_OF_ASC_NODE = 341.6880
ARG_OF_PERICENTER = 145.3830
MEAN_ANOMALY   = 214.9488

EPHEMERIS_TYPE = 0
CLASSIFICATION_TYPE = U
NORAD_CAT_ID   = 21574
ELEMENT_SET_NO = 999
REV_AT_EPOCH   = 80096
BSTAR          = .13222014E-3
MEAN_MOTION_DOT = .367E-5
MEAN_MOTION_DDOT = 0

CCSDS_OMM_VERS = 2.0
CREATION_DATE  = 
ORIGINATOR     = 

OBJECT_NAME    = ARIANE 40 R/B
OBJECT_ID      = 1991-050F
CENTER_NAME    = EARTH
REF_FRAME      = TEME
TIME_SYSTEM    = UTC
MEAN_ELEMENT_THEORY = SGP/SGP4

EPOCH          = 2025-11-27T02:43:17.093856
MEAN_MOTION    = 14.42793548
ECCENTRICITY   = .00037127
INCLINATION    = 98.2187
RA_OF_ASC_NODE = 22.1065
ARG_OF_PERICENTER = 43.6048
MEAN_ANOMALY   = 316.5436

EPHEMERIS_TYPE = 0
CLASSIFICATION_TYPE = U
NORAD_CAT_ID   = 21610
ELEMENT_SET_NO = 999
REV_AT_EPOCH   = 80420
BSTAR          = .13885992E-3
MEAN_MOTION_DOT = .421E-5
MEAN_MOTION_DDOT = 0

CCSDS_OMM_VERS = 2.0
CREATION_DATE  = 
ORIGINATOR     = 

OBJECT_NAME    = INTERCOSMOS 25
OBJECT_ID      = 1991-086A
CENTER_NAME    = EARTH
REF_FRAME      = TEME
TIME_SYSTEM    = UTC
MEAN_ELEMENT_THEORY = SGP/SGP4

EPOCH          = 2025-11-27T04:42:47.759904
MEAN_MOTION    = 12.11646139
ECCENTRICITY   = .14874361
INCLINATION    = 82.6067
RA_OF_ASC_NODE = 11.9750
ARG_OF_PERICENTER = 337.9129
MEAN_ANOMALY   = 16.3752

EPHEMERIS_TYPE = 0
CLASSIFICATION_TYPE = U
NORAD_CAT_ID   = 21819
ELEMENT_SET_NO = 999
REV_AT_EPOCH   = 48427
BSTAR          = .2673117E-3
MEAN_MOTION_DOT = .1357E-4
MEAN_MOTION_DDOT = 0

CCSDS_OMM_VERS = 2.0
CREATION_DATE  = 
ORIGINATOR     = 

OBJECT_NAME    = SL-8 R/B
OBJECT_ID      = 1992-008B
CENTER_NAME    = EARTH
REF_FRAME      = TEME
TIME_SYSTEM    = UTC
MEAN_ELEMENT_THEORY = SGP/SGP4

EPOCH          = 2025-11-26T13:08:25.033344
MEAN_MOTION    = 13.75953796
ECCENTRICITY   = .00359522
INCLINATION    = 82.9267
RA_OF_ASC_NODE = 344.4919
ARG_OF_PERICENTER = 63.9064
MEAN_ANOMALY   = 54.2112

EPHEMERIS_TYPE = 0
CLASSIFICATION_TYPE = U
NORAD_CAT_ID   = 21876
ELEMENT_SET_NO = 999
REV_AT_EPOCH   = 69523
BSTAR          = .13973021E-3
MEAN_MOTION_DOT = .152E-5
MEAN_MOTION_DDOT = 0

CCSDS_OMM_VERS = 2.0
CREATION_DATE  = 
ORIGINATOR     = 

OBJECT_NAME    = SL-8 R/B
OBJECT_ID      = 1992-020B
CENTER_NAME    = EARTH
REF_FRAME      = TEME
TIME_SYSTEM    = UTC
MEAN_ELEMENT_THEORY = SGP/SGP4

EPOCH          = 2025-11-27T06:52:14.447712
MEAN_MOTION    = 13.75523974
ECCENTRICITY   = .00279623
INCLINATION    = 82.9316
RA_OF_ASC_NODE = 229.7914
ARG_OF_PERICENTER = 222.0516
MEAN_ANOMALY   = 257.2570

EPHEMERIS_TYPE = 0
CLASSIFICATION_TYPE = U
NORAD_CAT_ID   = 21938
ELEMENT_SET_NO = 999
REV_AT_EPOCH   = 68705
BSTAR          = .56562529E-4
MEAN_MOTION_DOT = .7E-6
MEAN_MOTION_DDOT = 0

CCSDS_OMM_VERS = 2.0
CREATION_DATE  = 
ORIGINATOR     = 

OBJECT_NAME    = USA 81
OBJECT_ID      = 1992-023A
CENTER_NAME    = EARTH
REF_FRAME      = TEME
TIME_SYSTEM    = UTC
MEAN_ELEMENT_THEORY = SGP/SGP4

EPOCH          = 2025-11-27T00:51:59.845248
MEAN_MOTION    = 14.32318638
ECCENTRICITY   = .00021368
INCLINATION    = 85.0094
RA_OF_ASC_NODE = 190.6318
ARG_OF_PERICENTER = 65.6436
MEAN_ANOMALY   = 294.4980

EPHEMERIS_TYPE = 0
CLASSIFICATION_TYPE = U
NORAD_CAT_ID   = 21949
ELEMENT_SET_NO = 999
REV_AT_EPOCH   = 8009
BSTAR          = .70840397E-4
MEAN_MOTION_DOT = .211E-5
MEAN_MOTION_DDOT = 0

CCSDS_OMM_VERS = 2.0
CREATION_DATE  = 
ORIGINATOR     = 

OBJECT_NAME    = COSMOS 2219
OBJECT_ID      = 1992-076A
CENTER_NAME    = EARTH
REF_FRAME      = TEME
TIME_SYSTEM    = UTC
MEAN_ELEMENT_THEORY = SGP/SGP4

EPOCH          = 2025-11-27T03:53:13.947936
MEAN_MOTION    = 14.14066116
ECCENTRICITY   = .00185901
INCLINATION    = 71.0605
RA_OF_ASC_NODE = 232.3952
ARG_OF_PERICENTER = 348.6707
MEAN_ANOMALY   = 11.3995

EPHEMERIS_TYPE = 0
CLASSIFICATION_TYPE = U
NORAD_CAT_ID   = 22219
ELEMENT_SET_NO = 999
REV_AT_EPOCH   = 70388
BSTAR          = -.89294326E-4
MEAN_MOTION_DOT = -.217E-5
MEAN_MOTION_DDOT = 0

CCSDS_OMM_VERS = 2.0
CREATION_DATE  = 
ORIGINATOR     = 

OBJECT_NAME    = SL-16 R/B
OBJECT_ID      = 1992-076B
CENTER_NAME    = EARTH
REF_FRAME      = TEME
TIME_SYSTEM    = UTC
MEAN_ELEMENT_THEORY = SGP/SGP4

EPOCH          = 2025-11-27T07:50:30.863904
MEAN_MOTION    = 14.16838405
ECCENTRICITY   = .00150793
INCLINATION    = 71.0015
RA_OF_ASC_NODE = 43.9986
ARG_OF_PERICENTER = 254.0980
MEAN_ANOMALY   = 169.6109

EPHEMERIS_TYPE = 0
CLASSIFICATION_TYPE = U
NORAD_CAT_ID   = 22220
ELEMENT_SET_NO = 999
REV_AT_EPOCH   = 70733
BSTAR          = .16916238E-3
MEAN_MOTION_DOT = .291E-5
MEAN_MOTION_DDOT = 0

CCSDS_OMM_VERS = 2.0
CREATION_DATE  = 
ORIGINATOR     = 

OBJECT_NAME    = COSMOS 2221
OBJECT_ID      = 1992-080A
CENTER_NAME    = EARTH
REF_FRAME      = TEME
TIME_SYSTEM    = UTC
MEAN_ELEMENT_THEORY = SGP/SGP4

EPOCH          = 2025-11-27T05:31:35.594112
MEAN_MOTION    = 14.95673244
ECCENTRICITY   = .00148481
INCLINATION    = 82.5055
RA_OF_ASC_NODE = 17.1689
ARG_OF_PERICENTER = 171.0296
MEAN_ANOMALY   = 189.1194

EPHEMERIS_TYPE = 0
CLASSIFICATION_TYPE = U
NORAD_CAT_ID   = 22236
ELEMENT_SET_NO = 999
REV_AT_EPOCH   = 76547
BSTAR          = .18653283E-3
MEAN_MOTION_DOT = .2104E-4
MEAN_MOTION_DDOT = 0

CCSDS_OMM_VERS = 2.0
CREATION_DATE  = 
ORIGINATOR     = 

OBJECT_NAME    = SL-16 R/B
OBJECT_ID      = 1992-093B
CENTER_NAME    = EARTH
REF_FRAME      = TEME
TIME_SYSTEM    = UTC
MEAN_ELEMENT_THEORY = SGP/SGP4

EPOCH          = 2025-11-27T03:01:04.918368
MEAN_MOTION    = 14.15427223
ECCENTRICITY   = .00020025
INCLINATION    = 71.0212
RA_OF_ASC_NODE = 219.5714
ARG_OF_PERICENTER = 119.1319
MEAN_ANOMALY   = 241.0004

EPHEMERIS_TYPE = 0
CLASSIFICATION_TYPE = U
NORAD_CAT_ID   = 22285
ELEMENT_SET_NO = 999
REV_AT_EPOCH   = 69864
BSTAR          = -.87622655E-4
MEAN_MOTION_DOT = -.219E-5
MEAN_MOTION_DDOT = 0

